{
  "type": "FeatureCollection",
  "features": [
    {
      "type": "Feature",
      "properties": {
        "norad_id": 34036,
        "name": "COSMOS 2251 DEB",
        "group": "cosmos-2251-debris",
        "lat": 8.796399850803295,
        "lon": 153.4100804611225,
        "alt_km": 593.229549973893,
        "timestamp": "2025-12-11T22:43:47.664125+00:00",
        "meta_object_name": "COSMOS 2251 DEB",
        "meta_object_id": "1993-036HX",
        "meta_epoch": "2025-12-10T06:31:52.361184",
        "meta_mean_motion": 14.9462929,
        "meta_eccentricity": 0.0012901,
        "meta_inclination": 74.0201,
        "meta_ra_of_asc_node": 154.2466,
        "meta_arg_of_pericenter": 187.8957,
        "meta_mean_anomaly": 172.2026,
        "meta_ephemeris_type": 0,
        "meta_classification_type": "U",
        "meta_norad_cat_id": 34036,
        "meta_element_set_no": 999,
        "meta_rev_at_epoch": 88533,
        "meta_bstar": 0.0061833,
        "meta_mean_motion_dot": 0.0006772,
        "meta_mean_motion_ddot": 0,
        "tle_line1": "1 34036U 93036HX  25344.27213381  .00067720  00000+0  61833-2 0  9996",
        "tle_line2": "2 34036  74.0201 154.2466 0012901 187.8957 172.2026 14.94629290885331"
      },
      "geometry": {
        "type": "Point",
        "coordinates": [
          153.4100804611225,
          8.796399850803295
        ]
      }
    },
    {
      "type": "Feature",
      "properties": {
        "norad_id": 34037,
        "name": "COSMOS 2251 DEB",
        "group": "cosmos-2251-debris",
        "lat": -57.466546875368714,
        "lon": -101.47412493433875,
        "alt_km": 810.9489855380789,
        "timestamp": "2025-12-11T22:43:47.664135+00:00",
        "meta_object_name": "COSMOS 2251 DEB",
        "meta_object_id": "1993-036HY",
        "meta_epoch": "2025-12-11T14:55:10.207488",
        "meta_mean_motion": 14.34661258,
        "meta_eccentricity": 0.00520191,
        "meta_inclination": 74.0522,
        "meta_ra_of_asc_node": 52.4888,
        "meta_arg_of_pericenter": 102.8413,
        "meta_mean_anomaly": 257.8558,
        "meta_ephemeris_type": 0,
        "meta_classification_type": "U",
        "meta_norad_cat_id": 34037,
        "meta_element_set_no": 999,
        "meta_rev_at_epoch": 87701,
        "meta_bstar": 0.00074681976,
        "meta_mean_motion_dot": 2.12e-05,
        "meta_mean_motion_ddot": 0,
        "tle_line1": "1 34037U 93036HY  25345.62164592  .00002120  00000+0  74682-3 0  9996",
        "tle_line2": "2 34037  74.0522  52.4888 0052019 102.8413 257.8558 14.34661258877013"
      },
      "geometry": {
        "type": "Point",
        "coordinates": [
          -101.47412493433875,
          -57.466546875368714
        ]
      }
    },
    {
      "type": "Feature",
      "properties": {
        "norad_id": 34040,
        "name": "COSMOS 2251 DEB",
        "group": "cosmos-2251-debris",
        "lat": -41.77068487121317,
        "lon": 52.280112987719434,
        "alt_km": 895.5898584734123,
        "timestamp": "2025-12-11T22:43:47.664145+00:00",
        "meta_object_name": "COSMOS 2251 DEB",
        "meta_object_id": "1993-036JB",
        "meta_epoch": "2025-12-11T12:24:22.438368",
        "meta_mean_motion": 13.68372476,
        "meta_eccentricity": 0.03429941,
        "meta_inclination": 73.9559,
        "meta_ra_of_asc_node": 67.8837,
        "meta_arg_of_pericenter": 21.5005,
        "meta_mean_anomaly": 340.0122,
        "meta_ephemeris_type": 0,
        "meta_classification_type": "U",
        "meta_norad_cat_id": 34040,
        "meta_element_set_no": 999,
        "meta_rev_at_epoch": 83583,
        "meta_bstar": 0.00062062903,
        "meta_mean_motion_dot": 7.78e-06,
        "meta_mean_motion_ddot": 0,
        "tle_line1": "1 34040U 93036JB  25345.51692637  .00000778  00000+0  62063-3 0  9991",
        "tle_line2": "2 34040  73.9559  67.8837 0342994  21.5005 340.0122 13.68372476835830"
      },
      "geometry": {
        "type": "Point",
        "coordinates": [
          52.280112987719434,
          -41.77068487121317
        ]
      }
    },
    {
      "type": "Feature",
      "properties": {
        "norad_id": 34045,
        "name": "COSMOS 2251 DEB",
        "group": "cosmos-2251-debris",
        "lat": -66.96727400596767,
        "lon": -90.02866892459055,
        "alt_km": 791.0283988921174,
        "timestamp": "2025-12-11T22:43:47.664155+00:00",
        "meta_object_name": "COSMOS 2251 DEB",
        "meta_object_id": "1993-036JG",
        "meta_epoch": "2025-12-11T08:42:05.375808",
        "meta_mean_motion": 14.34067802,
        "meta_eccentricity": 0.00256109,
        "meta_inclination": 74.0391,
        "meta_ra_of_asc_node": 313.3515,
        "meta_arg_of_pericenter": 37.2109,
        "meta_mean_anomaly": 113.4778,
        "meta_ephemeris_type": 0,
        "meta_classification_type": "U",
        "meta_norad_cat_id": 34045,
        "meta_element_set_no": 999,
        "meta_rev_at_epoch": 88013,
        "meta_bstar": 0.00016975693,
        "meta_mean_motion_dot": 4.5e-06,
        "meta_mean_motion_ddot": 0,
        "tle_line1": "1 34045U 93036JG  25345.36256222  .00000450  00000+0  16976-3 0  9994",
        "tle_line2": "2 34045  74.0391 313.3515 0025610  37.2109 113.4778 14.34067802880135"
      },
      "geometry": {
        "type": "Point",
        "coordinates": [
          -90.02866892459055,
          -66.96727400596767
        ]
      }
    },
    {
      "type": "Feature",
      "properties": {
        "norad_id": 34046,
        "name": "COSMOS 2251 DEB",
        "group": "cosmos-2251-debris",
        "lat": -57.374760324775494,
        "lon": -141.49210993643592,
        "alt_km": 787.5282522874359,
        "timestamp": "2025-12-11T22:43:47.664166+00:00",
        "meta_object_name": "COSMOS 2251 DEB",
        "meta_object_id": "1993-036JH",
        "meta_epoch": "2025-12-11T12:21:02.723904",
        "meta_mean_motion": 14.46458209,
        "meta_eccentricity": 0.00745465,
        "meta_inclination": 74.0398,
        "meta_ra_of_asc_node": 12.7601,
        "meta_arg_of_pericenter": 96.5532,
        "meta_mean_anomaly": 53.025,
        "meta_ephemeris_type": 0,
        "meta_classification_type": "U",
        "meta_norad_cat_id": 34046,
        "meta_element_set_no": 999,
        "meta_rev_at_epoch": 87808,
        "meta_bstar": 0.0019953845,
        "meta_mean_motion_dot": 7.409e-05,
        "meta_mean_motion_ddot": 0,
        "tle_line1": "1 34046U 93036JH  25345.51461486  .00007409  00000+0  19954-2 0  9991",
        "tle_line2": "2 34046  74.0398  12.7601 0074546  96.5532  53.0250 14.46458209878082"
      },
      "geometry": {
        "type": "Point",
        "coordinates": [
          -141.49210993643592,
          -57.374760324775494
        ]
      }
    },
    {
      "type": "Feature",
      "properties": {
        "norad_id": 34050,
        "name": "COSMOS 2251 DEB",
        "group": "cosmos-2251-debris",
        "lat": -71.22900808909134,
        "lon": -111.51900511537781,
        "alt_km": 1069.9406767030268,
        "timestamp": "2025-12-11T22:43:47.664176+00:00",
        "meta_object_name": "COSMOS 2251 DEB",
        "meta_object_id": "1993-036JM",
        "meta_epoch": "2025-12-11T11:42:40.980384",
        "meta_mean_motion": 13.96178534,
        "meta_eccentricity": 0.02145504,
        "meta_inclination": 74.0884,
        "meta_ra_of_asc_node": 12.1997,
        "meta_arg_of_pericenter": 76.8357,
        "meta_mean_anomaly": 36.5639,
        "meta_ephemeris_type": 0,
        "meta_classification_type": "U",
        "meta_norad_cat_id": 34050,
        "meta_element_set_no": 999,
        "meta_rev_at_epoch": 85414,
        "meta_bstar": 0.00080694692,
        "meta_mean_motion_dot": 1.324e-05,
        "meta_mean_motion_ddot": 0,
        "tle_line1": "1 34050U 93036JM  25345.48797431  .00001324  00000+0  80695-3 0  9995",
        "tle_line2": "2 34050  74.0884  12.1997 0214550  76.8357  36.5639 13.96178534854148"
      },
      "geometry": {
        "type": "Point",
        "coordinates": [
          -111.51900511537781,
          -71.22900808909134
        ]
      }
    },
    {
      "type": "Feature",
      "properties": {
        "norad_id": 34053,
        "name": "COSMOS 2251 DEB",
        "group": "cosmos-2251-debris",
        "lat": 4.378764744895029,
        "lon": -115.27925481989266,
        "alt_km": 795.3086068407802,
        "timestamp": "2025-12-11T22:43:47.664187+00:00",
        "meta_object_name": "COSMOS 2251 DEB",
        "meta_object_id": "1993-036JQ",
        "meta_epoch": "2025-12-11T03:08:04.459488",
        "meta_mean_motion": 13.49157138,
        "meta_eccentricity": 0.04221281,
        "meta_inclination": 73.8443,
        "meta_ra_of_asc_node": 244.7642,
        "meta_arg_of_pericenter": 33.5797,
        "meta_mean_anomaly": 329.131,
        "meta_ephemeris_type": 0,
        "meta_classification_type": "U",
        "meta_norad_cat_id": 34053,
        "meta_element_set_no": 999,
        "meta_rev_at_epoch": 82662,
        "meta_bstar": 0.0010512613,
        "meta_mean_motion_dot": 1.125e-05,
        "meta_mean_motion_ddot": 0,
        "tle_line1": "1 34053U 93036JQ  25345.13060717  .00001125  00000+0  10513-2 0  9990",
        "tle_line2": "2 34053  73.8443 244.7642 0422128  33.5797 329.1310 13.49157138826623"
      },
      "geometry": {
        "type": "Point",
        "coordinates": [
          -115.27925481989266,
          4.378764744895029
        ]
      }
    }
  ]
}